#aV2024  2 12  0  0  0.00000000     288 DD+AD WGS84 FIT  NGA
## 2301  86400.00000000   300.00000000 60352 0.0000000000000
+   32     1  2  3  4  5  6  7  8  9 10 11 12 13 14 15 16 17
+         18 19 20 21 22 23 24 25 26 27 28 29 30 31 32  0  0
+          0  0  0  0  0  0  0  0  0  0  0  0  0  0  0  0  0
+          0  0  0  0  0  0  0  0  0  0  0  0  0  0  0  0  0
+          0  0  0  0  0  0  0  0  0  0  0  0  0  0  0  0  0
++         2  2  2  2  2  2  2  2  2  2  2  2  2  2  2  2  2
++         2  2  2  2  2  2  2  2  2  2  2  2  2  2  2  0  0
++         0  0  0  0  0  0  0  0  0  0  0  0  0  0  0  0  0
++         0  0  0  0  0  0  0  0  0  0  0  0  0  0  0  0  0
++         0  0  0  0  0  0  0  0  0  0  0  0  0  0  0  0  0
%c cc cc ccc ccc cccc cccc cccc cccc ccccc ccccc ccccc ccccc
%c cc cc ccc ccc cccc cccc cccc cccc ccccc ccccc ccccc ccccc
%f  0.0000000  0.000000000  0.00000000000  0.000000000000000
%f  0.0000000  0.000000000  0.00000000000  0.000000000000000
%i    0    0    0    0      0      0      0      0         0
%i    0    0    0    0      0      0      0      0         0
/*      NGA, ST. LOUIS,MO.                                  
/*   EPHEMERIS COMPUTED FROM 2 DAYS OF DATA                 
/*   EPOCHA v9 SMOOTHER                                     
/*   G2296 IERS2010 SATIGS SATAPC                           
*  2024  2 12  8 20  0.00000000
P  1 -11961.118240  18792.339413  13872.540367    169.234157                    
V  1    915.369560 -18332.160054  25334.091558      0.014757                    
P  2 -14117.082565  11437.464875  19782.016067   -486.688837                    
V  2   -166.056613 -24146.027404  14448.366051      0.058702                    
P  3 -23305.182917  12182.214417  -3392.783268    188.017597                    
V  3  -4659.414192   -425.503275  31924.097097      0.244184                    
P  4 -15790.006250   5576.575992 -20631.471953    289.703822                    
V  4 -19775.547641 -17186.306905  10348.862925      0.094108                    
P  5  24581.357418  -4773.535367  -9160.306291   -161.509374                    
V  5  -9293.394423   6881.202220 -28982.431031     -0.014597                    
P  6   6731.199606  21057.303381 -14568.812231    410.207016                    
V  6  -4065.938365  18225.889431  24451.646082     -0.147394                    
P  7  -5215.644844  25576.711787  -2729.739071    -60.034694                    
V  7  -3031.062591  -4529.825184 -31580.205213     -0.090967                    
P  8 -21453.219054  -1558.861818  15757.583317   -166.627870                    
V  8 -15273.478201 -13086.173846 -21534.476708     -0.018821                    
P  9  -3444.863374  15826.121181 -21122.629234     89.493230                    
V  9 -22029.632457 -15016.993927  -7745.854132      0.126424                    
P 10  -4703.150835 -14101.912654  22205.674135     -0.012543                    
V 10  25574.699633 -10505.157562  -1580.334012      0.028182                    
P 11  12729.287072  10533.597039 -20780.665788   -573.068857                    
V 11  -5344.786689  25881.581530   9787.391508     -0.129500                    
P 12  24153.978399 -10571.062978  -3173.981156   -477.193808                    
V 12   4382.879323   1427.976674  31504.427978     -0.037444                    
P 13  21525.849555  11818.242322  10195.519304    624.791015                    
V 13   7783.223614  10809.015628 -28182.719996      0.035260                    
P 14    307.935542  16175.619385  21058.628466    323.628566                    
V 14 -25230.785924   8991.128041  -6730.762645      0.099973                    
P 15  21604.707747   -868.784553  15067.924254    126.874931                    
V 15  16313.645020  11849.557696 -21793.338717      0.039268                    
P 16 -22963.830777  -2723.309035 -13798.213732   -364.405167                    
V 16  15448.611434  -6796.483115 -24526.768177      0.082579                    
P 17   8446.053356  20608.662086  14778.610365    717.243715                    
V 17 -14897.263527 -10392.417452  23839.310000     -0.011667                    
P 18   5130.848070 -25876.603140  -2024.861315   -553.796718                    
V 18   2132.336876   2934.136644 -32043.401066     -0.084328                    
P 19  16031.079155  20556.980707   5816.455155    439.553514                    
V 19  -6986.826266  -3586.849694  30583.754687      0.052840                    
P 20  18082.215737   4313.080871 -18848.355649    387.805307                    
V 20 -19420.510513  14437.592488 -15437.955928     -0.014346                    
P 21 -15206.487986   4890.589105  21550.101521    135.220693                    
V 21    -39.042652 -26433.693794   7082.226732     -0.013591                    
P 22   8078.013812  13427.672391  21846.072530     32.545989                    
V 22 -25359.920266   8553.459282   4489.557167     -0.062474                    
P 23   8865.382007 -17352.906149  17982.038334    154.492948                    
V 23  21362.413974  -8145.727305 -18597.325233      0.080123                    
P 24  14714.792075  -9386.222100  19498.953669   -430.388442                    
V 24    873.988346  25908.715710  11981.454222     -0.063104                    
P 25  16603.579159 -16809.640500 -12194.583949    488.336529                    
V 25  14897.658523  -3588.176419  26221.334461      0.011592                    
P 26 -15383.257539  -8828.046147 -20013.520638    191.059318                    
V 26  21815.601998 -12477.447794 -10980.261978     -0.039845                    
P 27 -22999.820335 -12466.094050   5497.223325     -3.319654                    
V 27  -4407.628693  -6200.189729 -30526.644289     -0.033820                    
P 28  -6316.105138 -22838.050857 -12024.140694   -128.393698                    
V 28   3714.900308 -14955.143265  26494.274196     -0.126361                    
P 29   6117.605401 -14235.001589 -21609.065315   -607.132491                    
V 29  20749.773453  17744.884132  -5926.303881      0.006765                    
P 30   2112.304165  25354.588444   7251.621377   -433.620740                    
V 30  -4743.472566   8607.288599 -29495.621116      0.049177                    
P 31 -11260.563629 -15022.509708 -18838.301420   -227.740012                    
V 31   5131.728790 -23143.612576  15960.593767     -0.001326                    
P 32 -12845.735877 -20090.804351  12112.041796   -611.178156                    
V 32  13294.898545   7244.941628  26352.714642     -0.021218                    
EOF
